{
  "norad_id": 55764,
  "name": "STARLINK-5499",
  "history": [
    {
      "epoch": "2026-04-15T11:59:58.856928Z",
      "apogee_km": 574.4487133699085,
      "perigee_km": 569.6535005873802,
      "latitude_deg": 2.4697519751426476e-05,
      "longitude_deg": 108.12420616707406,
      "height_km": 574.4421290283603,
      "semi_major_axis_km": 6950.188106978644,
      "eccentricity": 0.00034497,
      "inclination_deg": 69.9987,
      "raan_deg": 131.7806,
      "arg_perigee_deg": 270.8786,
      "mean_anomaly_deg": 89.1978,
      "mean_motion_rev_day": 14.98331547
    },
    {
      "epoch": "2026-04-16T10:25:52.536576Z",
      "apogee_km": 574.4310446017835,
      "perigee_km": 569.720190489611,
      "latitude_deg": 3.137029646931907e-05,
      "longitude_deg": 128.37301304457148,
      "height_km": 574.4799010653657,
      "semi_major_axis_km": 6950.212617545697,
      "eccentricity": 0.0003389,
      "inclination_deg": 69.999,
      "raan_deg": 129.4243,
      "arg_perigee_deg": 270.5707,
      "mean_anomaly_deg": 89.5064,
      "mean_motion_rev_day": 14.98323621
    },
    {
      "epoch": "2026-04-17T18:28:31.499328Z",
      "apogee_km": 574.4914943153963,
      "perigee_km": 569.5518775341361,
      "latitude_deg": 6.57456960258668e-05,
      "longitude_deg": 3.026575910737873,
      "height_km": 574.3233384599022,
      "semi_major_axis_km": 6950.158685924766,
      "eccentricity": 0.00035536,
      "inclination_deg": 69.9989,
      "raan_deg": 126.0562,
      "arg_perigee_deg": 272.9297,
      "mean_anomaly_deg": 87.1456,
      "mean_motion_rev_day": 14.98341061
    },
    {
      "epoch": "2026-04-18T10:29:53.401632Z",
      "apogee_km": 574.488916702363,
      "perigee_km": 569.6707483853716,
      "latitude_deg": -3.49508250382263e-06,
      "longitude_deg": 120.34446052140616,
      "height_km": 574.5862852187641,
      "semi_major_axis_km": 6950.216832543867,
      "eccentricity": 0.00034662,
      "inclination_deg": 69.999,
      "raan_deg": 124.3734,
      "arg_perigee_deg": 268.1298,
      "mean_anomaly_deg": 91.9464,
      "mean_motion_rev_day": 14.98322258
    },
    {
      "epoch": "2026-04-19T18:32:34.031040Z",
      "apogee_km": 574.5518583848061,
      "perigee_km": 569.4615731273861,
      "latitude_deg": -3.7942641006838846e-05,
      "longitude_deg": -5.006967875992885,
      "height_km": 574.4563164389622,
      "semi_major_axis_km": 6950.143715756096,
      "eccentricity": 0.0003662,
      "inclination_deg": 69.9988,
      "raan_deg": 121.0073,
      "arg_perigee_deg": 269.5141,
      "mean_anomaly_deg": 90.5598,
      "mean_motion_rev_day": 14.98345902
    },
    {
      "epoch": "2026-04-20T08:57:47.213568Z",
      "apogee_km": 574.5880573077993,
      "perigee_km": 569.5794502238059,
      "latitude_deg": -2.184379005588433e-05,
      "longitude_deg": 136.58118779302475,
      "height_km": 574.5700759872155,
      "semi_major_axis_km": 6950.220753765802,
      "eccentricity": 0.00036032,
      "inclination_deg": 69.9987,
      "raan_deg": 119.4926,
      "arg_perigee_deg": 268.664,
      "mean_anomaly_deg": 91.4106,
      "mean_motion_rev_day": 14.9832099
    },
    {
      "epoch": "2026-04-21T17:00:28.821024Z",
      "apogee_km": 574.4925771540911,
      "perigee_km": 569.603816886507,
      "latitude_deg": -1.1291649187124476e-06,
      "longitude_deg": 11.224890742438621,
      "height_km": 574.4966989173698,
      "semi_major_axis_km": 6950.185197020299,
      "eccentricity": 0.0003517,
      "inclination_deg": 69.9992,
      "raan_deg": 116.1257,
      "arg_perigee_deg": 269.517,
      "mean_anomaly_deg": 90.5586,
      "mean_motion_rev_day": 14.98332488
    },
    {
      "epoch": "2026-04-22T17:02:29.766336Z",
      "apogee_km": 574.5416995502046,
      "perigee_km": 569.582037637575,
      "latitude_deg": -1.723572412816931e-05,
      "longitude_deg": 7.208918911466726,
      "height_km": 574.5209872981148,
      "semi_major_axis_km": 6950.1988685938895,
      "eccentricity": 0.0003568,
      "inclination_deg": 69.9987,
      "raan_deg": 113.6007,
      "arg_perigee_deg": 269.2788,
      "mean_anomaly_deg": 90.7962,
      "mean_motion_rev_day": 14.98328067
    },
    {
      "epoch": "2026-04-23T07:27:42.267168Z",
      "apogee_km": 574.5265434555395,
      "perigee_km": 569.5845395469796,
      "latitude_deg": -7.046896854552666e-05,
      "longitude_deg": 148.79979751297165,
      "height_km": 574.5469278638678,
      "semi_major_axis_km": 6950.192541501259,
      "eccentricity": 0.00035553,
      "inclination_deg": 69.9983,
      "raan_deg": 112.0859,
      "arg_perigee_deg": 268.5272,
      "mean_anomaly_deg": 91.5479,
      "mean_motion_rev_day": 14.98330113
    },
    {
      "epoch": "2026-04-24T09:05:50.982720Z",
      "apogee_km": 574.5008411311182,
      "perigee_km": 569.5884527430626,
      "latitude_deg": -3.103154430215893e-05,
      "longitude_deg": 120.51737240444922,
      "height_km": 574.561900776997,
      "semi_major_axis_km": 6950.18164693709,
      "eccentricity": 0.0003534,
      "inclination_deg": 69.9984,
      "raan_deg": 109.3926,
      "arg_perigee_deg": 267.9144,
      "mean_anomaly_deg": 92.161,
      "mean_motion_rev_day": 14.98333636
    },
    {
      "epoch": "2026-04-25T17:08:33.055872Z",
      "apogee_km": 574.5190030037775,
      "perigee_km": 569.6232763901753,
      "latitude_deg": 4.656262013865055e-05,
      "longitude_deg": -4.840447127910043,
      "height_km": 574.5488682772713,
      "semi_major_axis_km": 6950.208139696976,
      "eccentricity": 0.0003522,
      "inclination_deg": 69.9987,
      "raan_deg": 106.0261,
      "arg_perigee_deg": 268.8326,
      "mean_anomaly_deg": 91.243,
      "mean_motion_rev_day": 14.98325069
    },
    {
      "epoch": "2026-04-26T09:09:53.650944Z",
      "apogee_km": 574.5177083335129,
      "perigee_km": 569.6114220446152,
      "latitude_deg": 3.327646811996349e-05,
      "longitude_deg": 112.48241938419532,
      "height_km": 574.545345733568,
      "semi_major_axis_km": 6950.201565189063,
      "eccentricity": 0.00035296,
      "inclination_deg": 69.9986,
      "raan_deg": 104.3428,
      "arg_perigee_deg": 268.7639,
      "mean_anomaly_deg": 91.3116,
      "mean_motion_rev_day": 14.98327195
    },
    {
      "epoch": "2026-04-27T15:36:26.807328Z",
      "apogee_km": 574.5827356213467,
      "perigee_km": 569.5438404125343,
      "latitude_deg": 2.7040459871220885e-05,
      "longitude_deg": 11.394035570051761,
      "height_km": 574.4326123760605,
      "semi_major_axis_km": 6950.20028801694,
      "eccentricity": 0.0003625,
      "inclination_deg": 69.9992,
      "raan_deg": 101.1428,
      "arg_perigee_deg": 271.3339,
      "mean_anomaly_deg": 88.7405,
      "mean_motion_rev_day": 14.98327608
    },
    {
      "epoch": "2026-04-28T15:38:27.996288Z",
      "apogee_km": 574.2868065713883,
      "perigee_km": 569.8414579272012,
      "latitude_deg": 2.2700096588758296e-05,
      "longitude_deg": 7.37655325601069,
      "height_km": 574.3083607252726,
      "semi_major_axis_km": 6950.2011322492945,
      "eccentricity": 0.0003198,
      "inclination_deg": 70.0003,
      "raan_deg": 98.6173,
      "arg_perigee_deg": 274.733,
      "mean_anomaly_deg": 85.3464,
      "mean_motion_rev_day": 14.98327335
    },
    {
      "epoch": "2026-04-29T06:03:40.112640Z",
      "apogee_km": 574.4682841820113,
      "perigee_km": 569.6199768289925,
      "latitude_deg": 3.9704780150320543e-05,
      "longitude_deg": 148.97106523938717,
      "height_km": 574.5550283538824,
      "semi_major_axis_km": 6950.181130505502,
      "eccentricity": 0.00034879,
      "inclination_deg": 69.999,
      "raan_deg": 97.1045,
      "arg_perigee_deg": 268.037,
      "mean_anomaly_deg": 92.039,
      "mean_motion_rev_day": 14.98333803
    },
    {
      "epoch": "2026-04-30T07:41:48.756480Z",
      "apogee_km": 574.1015190633188,
      "perigee_km": 569.9524101797178,
      "latitude_deg": -3.615125970568746e-05,
      "longitude_deg": 120.68809961949752,
      "height_km": 574.3510969234753,
      "semi_major_axis_km": 6950.163964621518,
      "eccentricity": 0.00029849,
      "inclination_deg": 70.0007,
      "raan_deg": 94.4104,
      "arg_perigee_deg": 272.8556,
      "mean_anomaly_deg": 87.2261,
      "mean_motion_rev_day": 14.98339354
    },
    {
      "epoch": "2026-05-02T07:45:50.037120Z",
      "apogee_km": 574.3669452293034,
      "perigee_km": 569.7075484142342,
      "latitude_deg": -1.469902537414653e-06,
      "longitude_deg": 112.65953132426993,
      "height_km": 574.5178657257637,
      "semi_major_axis_km": 6950.174246821768,
      "eccentricity": 0.0003352,
      "inclination_deg": 69.9995,
      "raan_deg": 89.3612,
      "arg_perigee_deg": 268.7002,
      "mean_anomaly_deg": 91.3773,
      "mean_motion_rev_day": 14.98336029
    },
    {
      "epoch": "2026-05-03T20:36:55.719936Z",
      "apogee_km": 574.3704702852665,
      "perigee_km": 569.7346938340324,
      "latitude_deg": -1.65428525698366e-06,
      "longitude_deg": -85.498991787613,
      "height_km": 574.5453500871498,
      "semi_major_axis_km": 6950.189582059649,
      "eccentricity": 0.0003335,
      "inclination_deg": 69.9998,
      "raan_deg": 85.4898,
      "arg_perigee_deg": 268.3932,
      "mean_anomaly_deg": 91.6845,
      "mean_motion_rev_day": 14.9833107
    },
    {
      "epoch": "2026-05-04T14:14:24.400608Z",
      "apogee_km": 574.3582433789807,
      "perigee_km": 569.7544353109997,
      "latitude_deg": 4.5203961736848614e-05,
      "longitude_deg": 7.556001850817437,
      "height_km": 574.5121637899961,
      "semi_major_axis_km": 6950.19333934499,
      "eccentricity": 0.0003312,
      "inclination_deg": 69.9998,
      "raan_deg": 83.6381,
      "arg_perigee_deg": 269.301,
      "mean_anomaly_deg": 90.777,
      "mean_motion_rev_day": 14.98329855
    }
  ]
}